{
  "norad_id": 51121,
  "name": "STARLINK-3399",
  "history": [
    {
      "epoch": "2026-03-28T17:56:42.048960Z",
      "apogee_km": 540.6148243295838,
      "perigee_km": 538.8983565719209,
      "latitude_deg": 4.954559526632615e-06,
      "longitude_deg": 108.23858829576369,
      "height_km": 540.5358795657475,
      "semi_major_axis_km": 6917.893590450752,
      "eccentricity": 0.00012406,
      "inclination_deg": 53.2169,
      "raan_deg": 203.5775,
      "arg_perigee_deg": 82.1954,
      "mean_anomaly_deg": 277.9179,
      "mean_motion_rev_day": 15.08835681
    },
    {
      "epoch": "2026-03-30T00:09:01.866240Z",
      "apogee_km": 540.641703119777,
      "perigee_km": 538.8947936864488,
      "latitude_deg": 2.239065069181492e-05,
      "longitude_deg": 8.265233674225609,
      "height_km": 540.5588403314115,
      "semi_major_axis_km": 6917.905248403113,
      "eccentricity": 0.00012626,
      "inclination_deg": 53.2167,
      "raan_deg": 197.9272,
      "arg_perigee_deg": 83.0836,
      "mean_anomaly_deg": 277.03,
      "mean_motion_rev_day": 15.08831867
    },
    {
      "epoch": "2026-03-30T12:52:07.351680Z",
      "apogee_km": 540.7729231078529,
      "perigee_km": 538.7642400431869,
      "latitude_deg": -2.479675704219331e-05,
      "longitude_deg": 174.5913256816878,
      "height_km": 540.7137043537217,
      "semi_major_axis_km": 6917.905581575519,
      "eccentricity": 0.00014518,
      "inclination_deg": 53.2178,
      "raan_deg": 195.5485,
      "arg_perigee_deg": 92.825,
      "mean_anomaly_deg": 267.2908,
      "mean_motion_rev_day": 15.08831758
    },
    {
      "epoch": "2026-03-30T16:02:53.456064Z",
      "apogee_km": 540.7245768640869,
      "perigee_km": 538.8048591373408,
      "latitude_deg": -5.559947100779323e-06,
      "longitude_deg": 126.17556220333087,
      "height_km": 540.773163935492,
      "semi_major_axis_km": 6917.901718000713,
      "eccentricity": 0.00013875,
      "inclination_deg": 53.2185,
      "raan_deg": 194.9554,
      "arg_perigee_deg": 96.7399,
      "mean_anomaly_deg": 263.3751,
      "mean_motion_rev_day": 15.08833022
    },
    {
      "epoch": "2026-03-31T12:42:53.959680Z",
      "apogee_km": 540.7213592145836,
      "perigee_km": 538.7712079169469,
      "latitude_deg": 3.973923259399e-05,
      "longitude_deg": 171.45754302336096,
      "height_km": 540.686328352755,
      "semi_major_axis_km": 6917.883283565765,
      "eccentricity": 0.00014095,
      "inclination_deg": 53.2185,
      "raan_deg": 191.0882,
      "arg_perigee_deg": 92.6037,
      "mean_anomaly_deg": 267.5117,
      "mean_motion_rev_day": 15.08839053
    },
    {
      "epoch": "2026-04-01T12:33:41.072256Z",
      "apogee_km": 540.9407229112139,
      "perigee_km": 538.5623528318929,
      "latitude_deg": 4.875732268898931e-05,
      "longitude_deg": 168.3209109610695,
      "height_km": 540.5487802951197,
      "semi_major_axis_km": 6917.888537871553,
      "eccentricity": 0.0001719,
      "inclination_deg": 53.2154,
      "raan_deg": 186.6272,
      "arg_perigee_deg": 85.2852,
      "mean_anomaly_deg": 274.8337,
      "mean_motion_rev_day": 15.08837334
    },
    {
      "epoch": "2026-04-02T12:24:25.512480Z",
      "apogee_km": 539.792570793642,
      "perigee_km": 539.5494790196472,
      "latitude_deg": -6.657880738805355e-06,
      "longitude_deg": 165.19479591284687,
      "height_km": 540.5548525363055,
      "semi_major_axis_km": 6917.808024906644,
      "eccentricity": 1.757e-05,
      "inclination_deg": 53.2114,
      "raan_deg": 182.1656,
      "arg_perigee_deg": 83.9568,
      "mean_anomaly_deg": 276.1444,
      "mean_motion_rev_day": 15.08863675
    },
    {
      "epoch": "2026-04-03T15:26:00.752928Z",
      "apogee_km": 540.562275581914,
      "perigee_km": 538.9393391023114,
      "latitude_deg": 2.1143114892285814e-05,
      "longitude_deg": 113.63344457969714,
      "height_km": 540.5160590022687,
      "semi_major_axis_km": 6917.887807342112,
      "eccentricity": 0.0001173,
      "inclination_deg": 53.2155,
      "raan_deg": 177.111,
      "arg_perigee_deg": 80.7435,
      "mean_anomaly_deg": 279.369,
      "mean_motion_rev_day": 15.08837573
    },
    {
      "epoch": "2026-04-04T04:09:03.496896Z",
      "apogee_km": 539.8785513960329,
      "perigee_km": 538.9445439911224,
      "latitude_deg": -4.26438954285951e-05,
      "longitude_deg": -80.02932248733566,
      "height_km": 539.8418553960654,
      "semi_major_axis_km": 6917.548547693577,
      "eccentricity": 6.751e-05,
      "inclination_deg": 53.2154,
      "raan_deg": 174.732,
      "arg_perigee_deg": 0.3622,
      "mean_anomaly_deg": 359.737,
      "mean_motion_rev_day": 15.08948572
    },
    {
      "epoch": "2026-04-05T13:32:13.138944Z",
      "apogee_km": 540.743413487322,
      "perigee_km": 538.8299158016816,
      "latitude_deg": -1.324125713303421e-05,
      "longitude_deg": 131.56450760051513,
      "height_km": 540.7540140025559,
      "semi_major_axis_km": 6917.9236646445015,
      "eccentricity": 0.0001383,
      "inclination_deg": 53.2164,
      "raan_deg": 168.4871,
      "arg_perigee_deg": 94.3027,
      "mean_anomaly_deg": 265.8123,
      "mean_motion_rev_day": 15.08825842
    },
    {
      "epoch": "2026-04-05T13:32:13.139808Z",
      "apogee_km": 540.7432751288488,
      "perigee_km": 538.8300541601548,
      "latitude_deg": -1.1411253330244795e-05,
      "longitude_deg": 131.56450535136523,
      "height_km": 540.7540036239795,
      "semi_major_axis_km": 6917.9236646445015,
      "eccentricity": 0.00013828,
      "inclination_deg": 53.2164,
      "raan_deg": 168.4871,
      "arg_perigee_deg": 94.3027,
      "mean_anomaly_deg": 265.8123,
      "mean_motion_rev_day": 15.08825842
    },
    {
      "epoch": "2026-04-06T05:26:04.353792Z",
      "apogee_km": 540.6814637792077,
      "perigee_km": 538.8637138556505,
      "latitude_deg": 6.689330196345946e-05,
      "longitude_deg": -110.52381893651696,
      "height_km": 540.7980220083793,
      "semi_major_axis_km": 6917.909588817429,
      "eccentricity": 0.00013138,
      "inclination_deg": 53.2173,
      "raan_deg": 165.515,
      "arg_perigee_deg": 98.2025,
      "mean_anomaly_deg": 261.9117,
      "mean_motion_rev_day": 15.08830447
    },
    {
      "epoch": "2026-04-07T11:38:24.290304Z",
      "apogee_km": 540.6154951515718,
      "perigee_km": 538.9081577212073,
      "latitude_deg": -6.606628820316908e-06,
      "longitude_deg": 149.50455690961306,
      "height_km": 540.7263247519287,
      "semi_major_axis_km": 6917.898826436389,
      "eccentricity": 0.0001234,
      "inclination_deg": 53.2165,
      "raan_deg": 159.867,
      "arg_perigee_deg": 94.6167,
      "mean_anomaly_deg": 265.4966,
      "mean_motion_rev_day": 15.08833968
    },
    {
      "epoch": "2026-04-07T11:38:24.291168Z",
      "apogee_km": 540.6154920945755,
      "perigee_km": 538.9081546649641,
      "latitude_deg": -6.606664139676949e-06,
      "longitude_deg": 149.50455329973096,
      "height_km": 540.7263216956765,
      "semi_major_axis_km": 6917.898823379769,
      "eccentricity": 0.0001234,
      "inclination_deg": 53.2165,
      "raan_deg": 159.867,
      "arg_perigee_deg": 94.6167,
      "mean_anomaly_deg": 265.4966,
      "mean_motion_rev_day": 15.08833969
    },
    {
      "epoch": "2026-04-08T11:29:10.949280Z",
      "apogee_km": 540.5977892716419,
      "perigee_km": 538.8706735400092,
      "latitude_deg": 1.4442231915353295e-05,
      "longitude_deg": 146.36852467066657,
      "height_km": 540.5721060572334,
      "semi_major_axis_km": 6917.871231405825,
      "eccentricity": 0.00012483,
      "inclination_deg": 53.2158,
      "raan_deg": 155.4047,
      "arg_perigee_deg": 86.1609,
      "mean_anomaly_deg": 273.9526,
      "mean_motion_rev_day": 15.08842996
    }
  ]
}